NORAD_CAT_ID,OBJECT_NAME,OBJECT_TYPE,EPOCH,MEAN_MOTION,ECCENTRICITY,INCLINATION,RA_OF_ASC_NODE,ARG_OF_PERICENTER,MEAN_ANOMALY,BSTAR,MEAN_MOTION_DOT,MEAN_MOTION_DDOT,TLE_LINE0,TLE_LINE1,TLE_LINE2,SEMIMAJOR_AXIS,PERIOD,APOGEE,PERIGEE,DECAYED
53556.0,STARLINK-4505,PAYLOAD,2023-11-17 00:26:05,15.08845513,0.0001704,53.2167,251.5113,97.1083,263.0103,0.00026853,3.989e-05,0.0,0 STARLINK-4505,1 53556U 22101AF  23321.01811572  .00003989  00000-0  26853-3 0  9992,2 53556  53.2167 251.5113 0001704  97.1083 263.0103 15.08845513 68940,6917.864,95.437,540.907,538.55,0.0
53556.0,STARLINK-4505,PAYLOAD,2023-11-17 05:12:14,15.08850712,0.0001537,53.216,250.6192,93.5775,266.5393,0.00028586,4.266e-05,0.0,0 STARLINK-4505,1 53556U 22101AF  23321.21683316  .00004266  00000-0  28586-3 0  9991,2 53556  53.2160 250.6192 0001537  93.5775 266.5393 15.08850712 68971,6917.848,95.437,540.776,538.649,0.0
53556.0,STARLINK-4505,PAYLOAD,2023-11-17 22:41:30,15.08824505,0.0002046,53.2174,247.3429,111.4381,248.6829,0.00070288,0.00010911,0.0,0 STARLINK-4505,1 53556U 22101AF  23321.94548658  .00010911  00000-0  70288-3 0  9990,2 53556  53.2174 247.3429 0002046 111.4381 248.6829 15.08824505 69080,6917.928,95.439,541.208,538.377,0.0
53556.0,STARLINK-4505,PAYLOAD,2023-11-18 01:52:15,15.08837996,0.000154,53.2168,246.7542,90.0572,270.0597,6.9322e-05,8.15e-06,0.0,0 STARLINK-4505,1 53556U 22101AF  23322.07795980  .00000815  00000-0  69322-4 0  9997,2 53556  53.2168 246.7542 0001540  90.0572 270.0597 15.08837996 69106,6917.887,95.438,540.817,538.686,0.0
53556.0,STARLINK-4505,PAYLOAD,2023-11-18 19:21:31,15.08814235,0.0001914,53.217,243.4795,101.7201,258.4005,0.0008754,0.00013662,0.0,0 STARLINK-4505,1 53556U 22101AF  23322.80660910  .00013662  00000-0  87540-3 0  9997,2 53556  53.2170 243.4795 0001914 101.7201 258.4005 15.08814235 69214,6917.959,95.439,541.148,538.5,0.0
53556.0,STARLINK-4505,PAYLOAD,2023-11-19 01:43:01,15.08857203,0.0001537,53.217,242.2952,92.4666,267.6502,-0.00012328,-2.25e-05,0.0,0 STARLINK-4505,1 53556U 22101AF  23323.07154997 -.00002250  00000-0 -12328-3 0  9995,2 53556  53.2170 242.2952 0001537  92.4666 267.6502 15.08857203 69258,6917.828,95.436,540.756,538.63,0.0
53556.0,STARLINK-4505,PAYLOAD,2023-11-19 11:15:21,15.08843741,0.0001724,53.2167,240.5059,72.3746,287.7434,0.00024485,3.611e-05,0.0,0 STARLINK-4505,1 53556U 22101AF  23323.46899816  .00003611  00000-0  24485-3 0  9991,2 53556  53.2167 240.5059 0001724  72.3746 287.7434 15.08843741 69313,6917.869,95.437,540.927,538.541,0.0
53556.0,STARLINK-4505,PAYLOAD,2023-11-19 22:23:03,15.08839939,0.0001579,53.2167,238.4248,85.3673,274.75,7.9537e-05,9.78e-06,0.0,0 STARLINK-4505,1 53556U 22101AF  23323.93267770  .00000978  00000-0  79537-4 0  9993,2 53556  53.2167 238.4248 0001579  85.3673 274.7500 15.08839939 69381,6917.881,95.438,540.838,538.653,0.0
53556.0,STARLINK-4505,PAYLOAD,2023-11-20 11:06:08,15.08843964,0.0001494,53.2165,236.0483,80.3625,279.7536,9.5577e-05,1.234e-05,0.0,0 STARLINK-4505,1 53556U 22101AF  23324.46259537  .00001234  00000-0  95577-4 0  9992,2 53556  53.2165 236.0483 0001494  80.3625 279.7536 15.08843964 69468,6917.868,95.437,540.767,538.7,0.0
53556.0,STARLINK-4505,PAYLOAD,2023-11-20 22:13:50,15.0883692,0.0001478,53.2167,233.9674,90.0059,270.1102,-7.5985e-05,-1.497e-05,0.0,0 STARLINK-4505,1 53556U 22101AF  23324.92627835 -.00001497  00000-0 -75985-4 0  9997,2 53556  53.2167 233.9674 0001478  90.0059 270.1102 15.08836920 69535,6917.89,95.438,540.777,538.732,0.0
53556.0,STARLINK-4505,PAYLOAD,2023-11-21 10:56:55,15.08840693,0.0001413,53.2162,231.5891,90.8364,269.279,-3.4665e-05,-8.4e-06,0.0,0 STARLINK-4505,1 53556U 22101AF  23325.45619673 -.00000840  00000-0 -34665-4 0  9998,2 53556  53.2162 231.5891 0001413  90.8364 269.2790 15.08840693 69614,6917.878,95.438,540.721,538.766,0.0
53556.0,STARLINK-4505,PAYLOAD,2023-11-22 01:15:23,15.08842026,0.0001478,53.2163,228.913,88.5174,271.5988,6.7592e-05,7.88e-06,0.0,0 STARLINK-4505,1 53556U 22101AF  23326.05235858  .00000788  00000-0  67592-4 0  9998,2 53556  53.2163 228.9130 0001478  88.5174 271.5988 15.08842026 69702,6917.874,95.437,540.762,538.717,0.0
53556.0,STARLINK-4505,PAYLOAD,2023-11-23 02:41:33,15.088632,0.000167,53.2168,224.1505,72.2463,287.8711,0.00050833,7.816e-05,0.0,0 STARLINK-4505,1 53556U 22101AF  23327.11218947  .00007816  00000-0  50833-3 0  9994,2 53556  53.2168 224.1505 0001670  72.2463 287.8711 15.08863200 69864,6917.809,95.436,540.83,538.519,0.0
53556.0,STARLINK-4505,PAYLOAD,2023-11-23 21:46:12,15.0882552,0.0001346,53.2159,220.5849,89.4979,270.6168,-0.00017771,-3.114e-05,0.0,0 STARLINK-4505,1 53556U 22101AF  23327.90708623 -.00003114  00000-0 -17771-3 0  9999,2 53556  53.2159 220.5849 0001346  89.4979 270.6168 15.08825520 69989,6917.925,95.438,540.721,538.858,0.0
53556.0,STARLINK-4505,PAYLOAD,2023-11-24 02:32:21,15.08822885,0.0001643,53.2163,219.6909,63.7703,296.3458,-6.2684e-05,-1.285e-05,0.0,0 STARLINK-4505,1 53556U 22101AF  23328.10580991 -.00001285  00000-0 -62684-4 0  9999,2 53556  53.2163 219.6909 0001643  63.7703 296.3458 15.08822885 70014,6917.933,95.439,540.934,538.661,0.0
53556.0,STARLINK-4505,PAYLOAD,2023-11-24 20:01:36,15.08837846,0.0001288,53.2158,216.423,88.202,271.912,0.0006228,9.637e-05,0.0,0 STARLINK-4505,1 53556U 22101AF  23328.83445256  .00009637  00000-0  62280-3 0  9991,2 53556  53.2158 216.4230 0001288  88.2020 271.9120 15.08837846 70129,6917.887,95.438,540.643,538.861,0.0
53556.0,STARLINK-4505,PAYLOAD,2023-11-24 21:36:59,15.08843124,0.0001452,53.216,216.1261,73.0507,287.0644,0.00079694,0.00012419,0.0,0 STARLINK-4505,1 53556U 22101AF  23328.90069298  .00012419  00000-0  79694-3 0  9996,2 53556  53.2160 216.1261 0001452  73.0507 287.0644 15.08843124 70134,6917.871,95.437,540.74,538.731,0.0
53556.0,STARLINK-4505,PAYLOAD,2023-11-25 02:23:09,15.08859205,0.0001468,53.2162,215.2312,75.0439,285.0716,0.0012079,0.00018998,0.0,0 STARLINK-4505,1 53556U 22101AF  23329.09940976  .00018998  00000-0  12079-2 0  9999,2 53556  53.2162 215.2312 0001468  75.0439 285.0716 15.08859205 70164,6917.822,95.436,540.702,538.671,0.0
53556.0,STARLINK-4505,PAYLOAD,2023-11-25 21:27:45,15.0887807,0.0001722,53.2157,211.66,118.9962,241.1202,0.0011461,0.00018018,0.0,0 STARLINK-4505,1 53556U 22101AF  23329.89427930  .00018018  00000-0  11461-2 0  9994,2 53556  53.2157 211.6600 0001722 118.9962 241.1202 15.08878070 70286,6917.764,95.435,540.82,538.438,0.0
53556.0,STARLINK-4505,PAYLOAD,2023-11-26 02:13:54,15.08896628,0.000139,53.2161,210.7719,83.8611,276.2539,0.0019172,0.00030404,0.0,0 STARLINK-4505,1 53556U 22101AF  23330.09299473  .00030404  00000-0  19172-2 0  9997,2 53556  53.2161 210.7719 0001390  83.8611 276.2539 15.08896628 70319,6917.707,95.434,540.534,538.611,0.0
53556.0,STARLINK-4505,PAYLOAD,2023-11-26 19:43:09,15.08835683,0.0001669,53.2165,207.4979,119.5669,240.5489,0.00040952,6.235e-05,0.0,0 STARLINK-4505,1 53556U 22101AF  23330.82164193  .00006235  00000-0  40952-3 0  9994,2 53556  53.2165 207.4979 0001669 119.5669 240.5489 15.08835683 70427,6917.894,95.438,540.913,538.604,0.0
53556.0,STARLINK-4505,PAYLOAD,2023-11-26 21:18:33,15.08837745,0.0001311,53.2157,207.2033,90.4101,269.7042,0.00017247,2.458e-05,0.0,0 STARLINK-4505,1 53556U 22101AF  23330.88788301  .00002458  00000-0  17247-3 0  9997,2 53556  53.2157 207.2033 0001311  90.4101 269.7042 15.08837745 70439,6917.887,95.438,540.659,538.845,0.0
53556.0,STARLINK-4505,PAYLOAD,2023-11-27 14:47:48,15.08830513,0.0001508,53.2151,203.9342,63.52,296.5947,0.00075609,0.00011763,0.0,0 STARLINK-4505,1 53556U 22101AF  23331.61653198  .00011763  00000-0  75609-3 0  9999,2 53556  53.2151 203.9342 0001508  63.5200 296.5947 15.08830513 70548,6917.909,95.438,540.818,538.731,0.0
53556.0,STARLINK-4505,PAYLOAD,2023-11-27 16:23:11,15.08836023,0.0001651,53.2152,203.6364,77.3732,282.7445,0.00087709,0.00013697,0.0,0 STARLINK-4505,1 53556U 22101AF  23331.68277183  .00013697  00000-0  87709-3 0  9994,2 53556  53.2152 203.6364 0001651  77.3732 282.7445 15.08836023 70555,6917.893,95.438,540.9,538.615,0.0
53556.0,STARLINK-4505,PAYLOAD,2023-11-28 19:24:44,15.08846907,0.0001307,53.2142,198.58,66.5371,293.5759,0.00064487,9.992e-05,0.0,0 STARLINK-4505,1 53556U 22101AF  23332.80885066  .00009992  00000-0  64487-3 0  9995,2 53556  53.2142 198.5800 0001307  66.5371 293.5759 15.08846907 70727,6917.859,95.437,540.628,538.82,0.0
53556.0,STARLINK-4505,PAYLOAD,2023-11-28 22:35:30,15.08850817,0.0001321,53.2141,197.9869,70.8628,289.2507,0.00047124,7.222e-05,0.0,0 STARLINK-4505,1 53556U 22101AF  23332.94132891  .00007222  00000-0  47124-3 0  9994,2 53556  53.2141 197.9869 0001321  70.8628 289.2507 15.08850817 70743,6917.847,95.437,540.626,538.798,0.0
53556.0,STARLINK-4505,PAYLOAD,2023-11-29 00:10:53,15.08853247,0.0001321,53.2139,197.6895,76.7635,283.3505,0.00050763,7.803e-05,0.0,0 STARLINK-4505,1 53556U 22101AF  23333.00756766  .00007803  00000-0  50763-3 0  9993,2 53556  53.2139 197.6895 0001321  76.7635 283.3505 15.08853247 70753,6917.84,95.437,540.619,538.791,0.0
53556.0,STARLINK-4505,PAYLOAD,2023-11-29 19:15:31,15.08847458,0.0001501,53.2153,194.1217,101.319,258.797,0.00021869,3.195e-05,0.0,0 STARLINK-4505,1 53556U 22101AF  23333.80244717  .00003195  00000-0  21869-3 0  9994,2 53556  53.2153 194.1217 0001501 101.3190 258.7970 15.08847458 70872,6917.858,95.437,540.761,538.684,0.0
53556.0,STARLINK-4505,PAYLOAD,2023-11-30 19:06:18,15.08838286,0.0001547,53.2141,189.6597,76.7182,283.3983,0.00013164,1.808e-05,0.0,0 STARLINK-4505,1 53556U 22101AF  23334.79605170  .00001808  00000-0  13164-3 0  9995,2 53556  53.2141 189.6597 0001547  76.7182 283.3983 15.08838286 71020,6917.886,95.438,540.821,538.68,0.0
53556.0,STARLINK-4505,PAYLOAD,2023-12-01 20:32:29,15.08846392,0.0001623,53.2142,184.902,78.2662,281.8512,0.0003838,5.827e-05,0.0,0 STARLINK-4505,1 53556U 22101AF  23335.85589149  .00005827  00000-0  38380-3 0  9992,2 53556  53.2142 184.9020 0001623  78.2662 281.8512 15.08846392 71180,6917.861,95.437,540.849,538.603,0.0
